{
  "norad_id": 64139,
  "name": "STARLINK-34212",
  "history": [
    {
      "epoch": "2026-03-28T09:05:06.157536Z",
      "apogee_km": 484.58753186531067,
      "perigee_km": 481.19351876908695,
      "latitude_deg": -3.885944435101346e-05,
      "longitude_deg": 10.072256949496103,
      "height_km": 482.30936053717255,
      "semi_major_axis_km": 6861.0275253171985,
      "eccentricity": 0.00024734,
      "inclination_deg": 43.0022,
      "raan_deg": 332.1478,
      "arg_perigee_deg": 282.2108,
      "mean_anomaly_deg": 77.8466,
      "mean_motion_rev_day": 15.27632958
    },
    {
      "epoch": "2026-03-29T00:46:40.326816Z",
      "apogee_km": 483.6740652564131,
      "perigee_km": 482.2867473168626,
      "latitude_deg": 2.2409457848391645e-06,
      "longitude_deg": 130.34264713776386,
      "height_km": 482.3925139900044,
      "semi_major_axis_km": 6861.117406286638,
      "eccentricity": 0.0001011,
      "inclination_deg": 43.0014,
      "raan_deg": 328.455,
      "arg_perigee_deg": 301.6839,
      "mean_anomaly_deg": 58.3914,
      "mean_motion_rev_day": 15.2760294
    },
    {
      "epoch": "2026-03-30T00:19:00.852384Z",
      "apogee_km": 484.0833789936505,
      "perigee_km": 481.87149292178674,
      "latitude_deg": -4.791636194196087e-06,
      "longitude_deg": 130.75240313357997,
      "height_km": 482.71140934164663,
      "semi_major_axis_km": 6861.114435957718,
      "eccentricity": 0.00016119,
      "inclination_deg": 43.0027,
      "raan_deg": 322.917,
      "arg_perigee_deg": 272.2389,
      "mean_anomaly_deg": 87.8278,
      "mean_motion_rev_day": 15.27603932
    },
    {
      "epoch": "2026-03-30T22:17:12.874272Z",
      "apogee_km": 483.79411098940545,
      "perigee_km": 482.1806489802093,
      "latitude_deg": 1.9826208757333278e-05,
      "longitude_deg": 155.12866315498405,
      "height_km": 482.9539151942571,
      "semi_major_axis_km": 6861.124379984807,
      "eccentricity": 0.00011758,
      "inclination_deg": 43.0012,
      "raan_deg": 317.7456,
      "arg_perigee_deg": 256.3816,
      "mean_anomaly_deg": 103.6905,
      "mean_motion_rev_day": 15.27600611
    },
    {
      "epoch": "2026-03-31T07:42:09.261792Z",
      "apogee_km": 484.0354390511902,
      "perigee_km": 482.05804589660966,
      "latitude_deg": 4.3956515990993845e-06,
      "longitude_deg": 11.291211685165944,
      "height_km": 482.75389077245376,
      "semi_major_axis_km": 6861.1837424739,
      "eccentricity": 0.0001441,
      "inclination_deg": 43.0041,
      "raan_deg": 315.5298,
      "arg_perigee_deg": 274.0629,
      "mean_anomaly_deg": 86.0058,
      "mean_motion_rev_day": 15.27580786
    },
    {
      "epoch": "2026-04-01T21:21:54.425664Z",
      "apogee_km": 483.8688607523627,
      "perigee_km": 482.0685066209635,
      "latitude_deg": -9.956638026146648e-06,
      "longitude_deg": 155.94536984687286,
      "height_km": 482.88726576237235,
      "semi_major_axis_km": 6861.105683686663,
      "eccentricity": 0.0001312,
      "inclination_deg": 42.998,
      "raan_deg": 306.6689,
      "arg_perigee_deg": 260.9102,
      "mean_anomaly_deg": 99.1601,
      "mean_motion_rev_day": 15.27606855
    },
    {
      "epoch": "2026-04-02T20:54:14.711040Z",
      "apogee_km": 484.10758261709634,
      "perigee_km": 481.82832355168284,
      "latitude_deg": 9.906708631176358e-06,
      "longitude_deg": 156.35265830276956,
      "height_km": 482.653213946704,
      "semi_major_axis_km": 6861.104953084389,
      "eccentricity": 0.0001661,
      "inclination_deg": 42.9993,
      "raan_deg": 301.1274,
      "arg_perigee_deg": 274.6092,
      "mean_anomaly_deg": 85.457,
      "mean_motion_rev_day": 15.27607099
    },
    {
      "epoch": "2026-04-02T22:28:24.010464Z",
      "apogee_km": 484.0178181292813,
      "perigee_km": 481.86110735398324,
      "latitude_deg": -2.3947468640116378e-05,
      "longitude_deg": 132.381027844885,
      "height_km": 482.612252879674,
      "semi_major_axis_km": 6861.076462741632,
      "eccentricity": 0.00015717,
      "inclination_deg": 43.0013,
      "raan_deg": 300.759,
      "arg_perigee_deg": 275.5453,
      "mean_anomaly_deg": 84.5219,
      "mean_motion_rev_day": 15.27616614
    },
    {
      "epoch": "2026-04-03T14:09:58.280832Z",
      "apogee_km": 483.5113283806422,
      "perigee_km": 482.5713469483817,
      "latitude_deg": -5.021567139619321e-06,
      "longitude_deg": -107.346727740011,
      "height_km": 482.94501594991976,
      "semi_major_axis_km": 6861.178337664512,
      "eccentricity": 6.85e-05,
      "inclination_deg": 42.9996,
      "raan_deg": 297.0685,
      "arg_perigee_deg": 254.2354,
      "mean_anomaly_deg": 105.8422,
      "mean_motion_rev_day": 15.27582591
    },
    {
      "epoch": "2026-04-04T05:51:32.189184Z",
      "apogee_km": 483.65488846789503,
      "perigee_km": 482.3424904332169,
      "latitude_deg": -5.585990369989779e-05,
      "longitude_deg": 12.922754534033512,
      "height_km": 482.5014102612046,
      "semi_major_axis_km": 6861.135689450555,
      "eccentricity": 9.564e-05,
      "inclination_deg": 42.9953,
      "raan_deg": 293.3738,
      "arg_perigee_deg": 294.5884,
      "mean_anomaly_deg": 65.4867,
      "mean_motion_rev_day": 15.27596834
    },
    {
      "epoch": "2026-04-05T13:14:40.343712Z",
      "apogee_km": 483.93261641160916,
      "perigee_km": 482.2114135181155,
      "latitude_deg": -1.0459026848379962e-05,
      "longitude_deg": -106.53473667385286,
      "height_km": 483.00056317509484,
      "semi_major_axis_km": 6861.209014964862,
      "eccentricity": 0.00012543,
      "inclination_deg": 43.0002,
      "raan_deg": 285.9892,
      "arg_perigee_deg": 259.8282,
      "mean_anomaly_deg": 100.2428,
      "mean_motion_rev_day": 15.27572346
    },
    {
      "epoch": "2026-04-05T19:31:17.955264Z",
      "apogee_km": 483.9521903735249,
      "perigee_km": 482.1312335433713,
      "latitude_deg": 5.33647200345689e-06,
      "longitude_deg": 157.57427297729006,
      "height_km": 482.9770429190324,
      "semi_major_axis_km": 6861.178711958448,
      "eccentricity": 0.0001327,
      "inclination_deg": 43.0023,
      "raan_deg": 284.5127,
      "arg_perigee_deg": 259.9763,
      "mean_anomaly_deg": 100.0939,
      "mean_motion_rev_day": 15.27582466
    },
    {
      "epoch": "2026-04-06T00:13:46.030656Z",
      "apogee_km": 484.06505469165677,
      "perigee_km": 481.9744602276587,
      "latitude_deg": 4.895469990969837e-05,
      "longitude_deg": 85.65359591358005,
      "height_km": 482.8538609385742,
      "semi_major_axis_km": 6861.1567574596575,
      "eccentricity": 0.00015235,
      "inclination_deg": 42.9996,
      "raan_deg": 283.4023,
      "arg_perigee_deg": 266.8543,
      "mean_anomaly_deg": 93.2135,
      "mean_motion_rev_day": 15.27589798
    },
    {
      "epoch": "2026-04-07T12:19:22.062720Z",
      "apogee_km": 483.6608035101626,
      "perigee_km": 482.36432068890736,
      "latitude_deg": 1.8151645357288618e-05,
      "longitude_deg": -105.72097539393278,
      "height_km": 482.8446800990556,
      "semi_major_axis_km": 6861.149562099535,
      "eccentricity": 9.448e-05,
      "inclination_deg": 42.9992,
      "raan_deg": 274.9102,
      "arg_perigee_deg": 265.0521,
      "mean_anomaly_deg": 95.0223,
      "mean_motion_rev_day": 15.27592201
    },
    {
      "epoch": "2026-04-07T20:10:08.558112Z",
      "apogee_km": 484.0027743964265,
      "perigee_km": 481.9636494694405,
      "latitude_deg": 4.9457960877373766e-05,
      "longitude_deg": 134.41869224501335,
      "height_km": 482.9119934462839,
      "semi_major_axis_km": 6861.120211932934,
      "eccentricity": 0.0001486,
      "inclination_deg": 43.0019,
      "raan_deg": 273.0658,
      "arg_perigee_deg": 261.4353,
      "mean_anomaly_deg": 98.6331,
      "mean_motion_rev_day": 15.27602003
    },
    {
      "epoch": "2026-04-08T11:51:42.672960Z",
      "apogee_km": 483.33848328099884,
      "perigee_km": 482.64345101792696,
      "latitude_deg": 2.7873550016073673e-05,
      "longitude_deg": -105.30985875274555,
      "height_km": 482.82941430284654,
      "semi_major_axis_km": 6861.127967149463,
      "eccentricity": 5.065e-05,
      "inclination_deg": 42.9957,
      "raan_deg": 269.3739,
      "arg_perigee_deg": 100.6221,
      "mean_anomaly_deg": 259.4688,
      "mean_motion_rev_day": 15.27599413
    },
    {
      "epoch": "2026-04-08T19:42:29.531232Z",
      "apogee_km": 484.0005493102635,
      "perigee_km": 482.10411657863733,
      "latitude_deg": 2.228063632631576e-05,
      "longitude_deg": 134.82235334623292,
      "height_km": 482.75340619445035,
      "semi_major_axis_km": 6861.18933294445,
      "eccentricity": 0.0001382,
      "inclination_deg": 42.9975,
      "raan_deg": 267.5236,
      "arg_perigee_deg": 274.5572,
      "mean_anomaly_deg": 85.5122,
      "mean_motion_rev_day": 15.27578919
    },
    {
      "epoch": "2026-04-10T10:56:24.129312Z",
      "apogee_km": 483.67403596066833,
      "perigee_km": 482.36629940450894,
      "latitude_deg": -4.3165816783871885e-05,
      "longitude_deg": -104.49540712110625,
      "height_km": 483.2063696938247,
      "semi_major_axis_km": 6861.157167682589,
      "eccentricity": 9.53e-05,
      "inclination_deg": 42.9999,
      "raan_deg": 258.2946,
      "arg_perigee_deg": 231.1524,
      "mean_anomaly_deg": 128.9242,
      "mean_motion_rev_day": 15.27589661
    },
    {
      "epoch": "2026-04-11T10:28:44.948640Z",
      "apogee_km": 484.29142937384404,
      "perigee_km": 481.87765163589575,
      "latitude_deg": -4.556250482421885e-06,
      "longitude_deg": -104.09113228736459,
      "height_km": 482.59002935016184,
      "semi_major_axis_km": 6861.22154050487,
      "eccentricity": 0.0001759,
      "inclination_deg": 42.9964,
      "raan_deg": 252.7523,
      "arg_perigee_deg": 282.9812,
      "mean_anomaly_deg": 77.0843,
      "mean_motion_rev_day": 15.27568163
    }
  ]
}